{
  "type": "FeatureCollection",
  "features": [
    {
      "type": "Feature",
      "properties": {
        "norad_id": 43260,
        "name": "GAOFEN-1 03",
        "group": "resource",
        "lat": -79.2845387591059,
        "lon": 84.06771007592178,
        "alt_km": 647.7295309754427,
        "timestamp": "2025-12-03T17:47:50.369763+00:00",
        "meta_object_name": "GAOFEN-1 03",
        "meta_object_id": "2018-031B",
        "meta_epoch": "2025-12-03T11:39:58.378176",
        "meta_mean_motion": 14.76405005,
        "meta_eccentricity": 0.0002628,
        "meta_inclination": 98.0812,
        "meta_ra_of_asc_node": 35.1494,
        "meta_arg_of_pericenter": 358.418,
        "meta_mean_anomaly": 1.7021,
        "meta_ephemeris_type": 0,
        "meta_classification_type": "U",
        "meta_norad_cat_id": 43260,
        "meta_element_set_no": 999,
        "meta_rev_at_epoch": 41381,
        "meta_bstar": 0.00021899,
        "meta_mean_motion_dot": 1.47e-05,
        "meta_mean_motion_ddot": 0,
        "tle_line1": "1 43260U 18031B   25337.48609234  .00001470  00000+0  21899-3 0  9997",
        "tle_line2": "2 43260  98.0812  35.1494 0002628 358.4180   1.7021 14.76405005413818"
      },
      "geometry": {
        "type": "Point",
        "coordinates": [
          84.06771007592178,
          -79.2845387591059
        ]
      }
    },
    {
      "type": "Feature",
      "properties": {
        "norad_id": 43262,
        "name": "GAOFEN-1 04",
        "group": "resource",
        "lat": 45.384725585069894,
        "lon": 27.292494380500678,
        "alt_km": 635.8415992685104,
        "timestamp": "2025-12-03T17:47:50.369774+00:00",
        "meta_object_name": "GAOFEN-1 04",
        "meta_object_id": "2018-031D",
        "meta_epoch": "2025-12-03T12:42:36.880992",
        "meta_mean_motion": 14.76418274,
        "meta_eccentricity": 0.0001343,
        "meta_inclination": 98.0821,
        "meta_ra_of_asc_node": 35.3609,
        "meta_arg_of_pericenter": 62.4218,
        "meta_mean_anomaly": 297.7128,
        "meta_ephemeris_type": 0,
        "meta_classification_type": "U",
        "meta_norad_cat_id": 43262,
        "meta_element_set_no": 999,
        "meta_rev_at_epoch": 41381,
        "meta_bstar": 0.0002218,
        "meta_mean_motion_dot": 1.49e-05,
        "meta_mean_motion_ddot": 0,
        "tle_line1": "1 43262U 18031D   25337.52959353  .00001490  00000+0  22180-3 0  9990",
        "tle_line2": "2 43262  98.0821  35.3609 0001343  62.4218 297.7128 14.76418274413814"
      },
      "geometry": {
        "type": "Point",
        "coordinates": [
          27.292494380500678,
          45.384725585069894
        ]
      }
    },
    {
      "type": "Feature",
      "properties": {
        "norad_id": 43437,
        "name": "SENTINEL-3B",
        "group": "resource",
        "lat": 19.545111656768604,
        "lon": 39.96547823706227,
        "alt_km": 802.7592146125107,
        "timestamp": "2025-12-03T17:47:50.369785+00:00",
        "meta_object_name": "SENTINEL-3B",
        "meta_object_id": "2018-039A",
        "meta_epoch": "2025-12-03T10:58:20.756352",
        "meta_mean_motion": 14.26736911,
        "meta_eccentricity": 0.0001465,
        "meta_inclination": 98.628,
        "meta_ra_of_asc_node": 42.775,
        "meta_arg_of_pericenter": 111.8158,
        "meta_mean_anomaly": 248.3178,
        "meta_ephemeris_type": 0,
        "meta_classification_type": "U",
        "meta_norad_cat_id": 43437,
        "meta_element_set_no": 999,
        "meta_rev_at_epoch": 39621,
        "meta_bstar": 0.00011602,
        "meta_mean_motion_dot": 2.37e-06,
        "meta_mean_motion_ddot": 0,
        "tle_line1": "1 43437U 18039A   25337.45718468  .00000237  00000+0  11602-3 0  9999",
        "tle_line2": "2 43437  98.6280  42.7750 0001465 111.8158 248.3178 14.26736911396216"
      },
      "geometry": {
        "type": "Point",
        "coordinates": [
          39.96547823706227,
          19.545111656768604
        ]
      }
    },
    {
      "type": "Feature",
      "properties": {
        "norad_id": 43461,
        "name": "GAOFEN-5 01",
        "group": "resource",
        "lat": 0.026869336189852634,
        "lon": -59.45150905457013,
        "alt_km": 693.788461698221,
        "timestamp": "2025-12-03T17:47:50.369795+00:00",
        "meta_object_name": "GAOFEN-5 01",
        "meta_object_id": "2018-043A",
        "meta_epoch": "2025-12-03T11:13:11.097120",
        "meta_mean_motion": 14.6039253,
        "meta_eccentricity": 0.0001564,
        "meta_inclination": 98.4313,
        "meta_ra_of_asc_node": 300.2737,
        "meta_arg_of_pericenter": 10.1795,
        "meta_mean_anomaly": 349.9435,
        "meta_ephemeris_type": 0,
        "meta_classification_type": "U",
        "meta_norad_cat_id": 43461,
        "meta_element_set_no": 999,
        "meta_rev_at_epoch": 40312,
        "meta_bstar": 0.00016889,
        "meta_mean_motion_dot": 7.69e-06,
        "meta_mean_motion_ddot": 0,
        "tle_line1": "1 43461U 18043A   25337.46748955  .00000769  00000+0  16889-3 0  9998",
        "tle_line2": "2 43461  98.4313 300.2737 0001564  10.1795 349.9435 14.60392530403129"
      },
      "geometry": {
        "type": "Point",
        "coordinates": [
          -59.45150905457013,
          0.026869336189852634
        ]
      }
    },
    {
      "type": "Feature",
      "properties": {
        "norad_id": 43484,
        "name": "GAOFEN-6",
        "group": "resource",
        "lat": -13.758938103775533,
        "lon": -139.6142088813234,
        "alt_km": 647.0809839433232,
        "timestamp": "2025-12-03T17:47:50.369805+00:00",
        "meta_object_name": "GAOFEN-6",
        "meta_object_id": "2018-048A",
        "meta_epoch": "2025-12-03T12:02:40.452576",
        "meta_mean_motion": 14.76536863,
        "meta_eccentricity": 0.0013319,
        "meta_inclination": 97.8044,
        "meta_ra_of_asc_node": 42.0787,
        "meta_arg_of_pericenter": 90.969,
        "meta_mean_anomaly": 269.3046,
        "meta_ephemeris_type": 0,
        "meta_classification_type": "U",
        "meta_norad_cat_id": 43484,
        "meta_element_set_no": 999,
        "meta_rev_at_epoch": 40451,
        "meta_bstar": 8.8189e-05,
        "meta_mean_motion_dot": 5.66e-06,
        "meta_mean_motion_ddot": 0,
        "tle_line1": "1 43484U 18048A   25337.50185709  .00000566  00000+0  88189-4 0  9993",
        "tle_line2": "2 43484  97.8044  42.0787 0013319  90.9690 269.3046 14.76536863404518"
      },
      "geometry": {
        "type": "Point",
        "coordinates": [
          -139.6142088813234,
          -13.758938103775533
        ]
      }
    },
    {
      "type": "Feature",
      "properties": {
        "norad_id": 43585,
        "name": "GAOFEN-11 01",
        "group": "resource",
        "lat": 3.4406519249961356,
        "lon": -138.81324488468522,
        "alt_km": 426.2112698834135,
        "timestamp": "2025-12-03T17:47:50.369822+00:00",
        "meta_object_name": "GAOFEN-11 01",
        "meta_object_id": "2018-063A",
        "meta_epoch": "2025-12-03T12:23:10.454208",
        "meta_mean_motion": 15.48818106,
        "meta_eccentricity": 0.0004978,
        "meta_inclination": 97.1581,
        "meta_ra_of_asc_node": 40.5303,
        "meta_arg_of_pericenter": 353.3447,
        "meta_mean_anomaly": 6.7738,
        "meta_ephemeris_type": 0,
        "meta_classification_type": "U",
        "meta_norad_cat_id": 43585,
        "meta_element_set_no": 999,
        "meta_rev_at_epoch": 40999,
        "meta_bstar": 0.0003517,
        "meta_mean_motion_dot": 0.00018847,
        "meta_mean_motion_ddot": 0,
        "tle_line1": "1 43585U 18063A   25337.51609322  .00018847  00000+0  35170-3 0  9997",
        "tle_line2": "2 43585  97.1581  40.5303 0004978 353.3447   6.7738 15.48818106409994"
      },
      "geometry": {
        "type": "Point",
        "coordinates": [
          -138.81324488468522,
          3.4406519249961356
        ]
      }
    },
    {
      "type": "Feature",
      "properties": {
        "norad_id": 43613,
        "name": "ICESAT-2",
        "group": "resource",
        "lat": -47.487619075905144,
        "lon": 56.1173266391607,
        "alt_km": 488.1309545912882,
        "timestamp": "2025-12-03T17:47:50.369832+00:00",
        "meta_object_name": "ICESAT-2",
        "meta_object_id": "2018-070A",
        "meta_epoch": "2025-12-03T12:05:25.563840",
        "meta_mean_motion": 15.28224846,
        "meta_eccentricity": 3.27e-05,
        "meta_inclination": 92.0056,
        "meta_ra_of_asc_node": 238.2439,
        "meta_arg_of_pericenter": 122.3,
        "meta_mean_anomaly": 237.8281,
        "meta_ephemeris_type": 0,
        "meta_classification_type": "U",
        "meta_norad_cat_id": 43613,
        "meta_element_set_no": 999,
        "meta_rev_at_epoch": 40257,
        "meta_bstar": 0.00066112,
        "meta_mean_motion_dot": 0.00018192,
        "meta_mean_motion_ddot": 0,
        "tle_line1": "1 43613U 18070A   25337.50376810  .00018192  00000+0  66112-3 0  9992",
        "tle_line2": "2 43613  92.0056 238.2439 0000327 122.3000 237.8281 15.28224846402573"
      },
      "geometry": {
        "type": "Point",
        "coordinates": [
          56.1173266391607,
          -47.487619075905144
        ]
      }
    }
  ]
}